FENGYUN 1C DEB          
1 31476U 99025BVQ 17345.49746102  .00000685  00000-0  40697-3 0  9997
2 31476  99.1102 358.7474 0060757 146.7624  13.7371 14.10015930544692
